{
  "type": "FeatureCollection",
  "features": [
    {
      "type": "Feature",
      "properties": {
        "norad_id": 33835,
        "name": "COSMOS 2251 DEB",
        "group": "cosmos-2251-debris",
        "lat": 28.689083489943364,
        "lon": 104.27113576453345,
        "alt_km": 702.0009101796031,
        "timestamp": "2025-12-15T19:00:45.751402+00:00",
        "meta_object_name": "COSMOS 2251 DEB",
        "meta_object_id": "1993-036CC",
        "meta_epoch": "2025-12-14T17:10:41.115360",
        "meta_mean_motion": 14.6227699,
        "meta_eccentricity": 0.00545111,
        "meta_inclination": 74.0568,
        "meta_ra_of_asc_node": 97.3293,
        "meta_arg_of_pericenter": 150.3042,
        "meta_mean_anomaly": 336.0102,
        "meta_ephemeris_type": 0,
        "meta_classification_type": "U",
        "meta_norad_cat_id": 33835,
        "meta_element_set_no": 999,
        "meta_rev_at_epoch": 88818,
        "meta_bstar": 0.00092244178,
        "meta_mean_motion_dot": 4.726e-05,
        "meta_mean_motion_ddot": 0,
        "tle_line1": "1 33835U 93036CC  25348.71575365  .00004726  00000+0  92244-3 0  9996",
        "tle_line2": "2 33835  74.0568  97.3293 0054511 150.3042 336.0102 14.62276990888182"
      },
      "geometry": {
        "type": "Point",
        "coordinates": [
          104.27113576453345,
          28.689083489943364
        ]
      }
    },
    {
      "type": "Feature",
      "properties": {
        "norad_id": 33836,
        "name": "COSMOS 2251 DEB",
        "group": "cosmos-2251-debris",
        "lat": -60.94799889725381,
        "lon": 104.03480561131178,
        "alt_km": 649.3011034803121,
        "timestamp": "2025-12-15T19:00:45.751413+00:00",
        "meta_object_name": "COSMOS 2251 DEB",
        "meta_object_id": "1993-036CD",
        "meta_epoch": "2025-12-14T19:26:53.640384",
        "meta_mean_motion": 14.796686,
        "meta_eccentricity": 0.00225975,
        "meta_inclination": 73.9972,
        "meta_ra_of_asc_node": 254.8644,
        "meta_arg_of_pericenter": 107.2613,
        "meta_mean_anomaly": 309.9661,
        "meta_ephemeris_type": 0,
        "meta_classification_type": "U",
        "meta_norad_cat_id": 33836,
        "meta_element_set_no": 999,
        "meta_rev_at_epoch": 64119,
        "meta_bstar": 0.001001645,
        "meta_mean_motion_dot": 7.525e-05,
        "meta_mean_motion_ddot": 0,
        "tle_line1": "1 33836U 93036CD  25348.81034306  .00007525  00000+0  10016-2 0  9999",
        "tle_line2": "2 33836  73.9972 254.8644 0022597 107.2613 309.9661 14.79668600641192"
      },
      "geometry": {
        "type": "Point",
        "coordinates": [
          104.03480561131178,
          -60.94799889725381
        ]
      }
    },
    {
      "type": "Feature",
      "properties": {
        "norad_id": 33837,
        "name": "COSMOS 2251 DEB",
        "group": "cosmos-2251-debris",
        "lat": -73.5924527273397,
        "lon": -53.341949834782156,
        "alt_km": 704.8913948995805,
        "timestamp": "2025-12-15T19:00:45.751423+00:00",
        "meta_object_name": "COSMOS 2251 DEB",
        "meta_object_id": "1993-036CE",
        "meta_epoch": "2025-12-14T13:39:04.663008",
        "meta_mean_motion": 14.50705907,
        "meta_eccentricity": 0.00358826,
        "meta_inclination": 74.0131,
        "meta_ra_of_asc_node": 52.1547,
        "meta_arg_of_pericenter": 273.5795,
        "meta_mean_anomaly": 86.1262,
        "meta_ephemeris_type": 0,
        "meta_classification_type": "U",
        "meta_norad_cat_id": 33837,
        "meta_element_set_no": 999,
        "meta_rev_at_epoch": 88822,
        "meta_bstar": 0.00031491903,
        "meta_mean_motion_dot": 1.219e-05,
        "meta_mean_motion_ddot": 0,
        "tle_line1": "1 33837U 93036CE  25348.56880397  .00001219  00000+0  31492-3 0  9997",
        "tle_line2": "2 33837  74.0131  52.1547 0035882 273.5795  86.1262 14.50705907888221"
      },
      "geometry": {
        "type": "Point",
        "coordinates": [
          -53.341949834782156,
          -73.5924527273397
        ]
      }
    },
    {
      "type": "Feature",
      "properties": {
        "norad_id": 33838,
        "name": "COSMOS 2251 DEB",
        "group": "cosmos-2251-debris",
        "lat": 62.198473206984474,
        "lon": -68.78244597610566,
        "alt_km": 741.8494298029336,
        "timestamp": "2025-12-15T19:00:45.751433+00:00",
        "meta_object_name": "COSMOS 2251 DEB",
        "meta_object_id": "1993-036CF",
        "meta_epoch": "2025-12-14T21:41:04.174656",
        "meta_mean_motion": 14.48370745,
        "meta_eccentricity": 0.00274567,
        "meta_inclination": 74.0363,
        "meta_ra_of_asc_node": 145.7612,
        "meta_arg_of_pericenter": 267.3376,
        "meta_mean_anomaly": 254.0335,
        "meta_ephemeris_type": 0,
        "meta_classification_type": "U",
        "meta_norad_cat_id": 33838,
        "meta_element_set_no": 999,
        "meta_rev_at_epoch": 88600,
        "meta_bstar": 0.00038005045,
        "meta_mean_motion_dot": 1.401e-05,
        "meta_mean_motion_ddot": 0,
        "tle_line1": "1 33838U 93036CF  25348.90352054  .00001401  00000+0  38005-3 0  9990",
        "tle_line2": "2 33838  74.0363 145.7612 0027456 267.3376 254.0335 14.48370745886001"
      },
      "geometry": {
        "type": "Point",
        "coordinates": [
          -68.78244597610566,
          62.198473206984474
        ]
      }
    },
    {
      "type": "Feature",
      "properties": {
        "norad_id": 33839,
        "name": "COSMOS 2251 DEB",
        "group": "cosmos-2251-debris",
        "lat": -33.50475417694866,
        "lon": 31.537671112651466,
        "alt_km": 691.5818549437363,
        "timestamp": "2025-12-15T19:00:45.751444+00:00",
        "meta_object_name": "COSMOS 2251 DEB",
        "meta_object_id": "1993-036CG",
        "meta_epoch": "2025-12-14T20:46:53.918112",
        "meta_mean_motion": 14.64425389,
        "meta_eccentricity": 0.00851577,
        "meta_inclination": 74.038,
        "meta_ra_of_asc_node": 202.3947,
        "meta_arg_of_pericenter": 313.9768,
        "meta_mean_anomaly": 60.5849,
        "meta_ephemeris_type": 0,
        "meta_classification_type": "U",
        "meta_norad_cat_id": 33839,
        "meta_element_set_no": 999,
        "meta_rev_at_epoch": 89611,
        "meta_bstar": 0.00023751483,
        "meta_mean_motion_dot": 1.291e-05,
        "meta_mean_motion_ddot": 0,
        "tle_line1": "1 33839U 93036CG  25348.86590183  .00001291  00000+0  23751-3 0  9992",
        "tle_line2": "2 33839  74.0380 202.3947 0085157 313.9768  60.5849 14.64425389896113"
      },
      "geometry": {
        "type": "Point",
        "coordinates": [
          31.537671112651466,
          -33.50475417694866
        ]
      }
    },
    {
      "type": "Feature",
      "properties": {
        "norad_id": 33841,
        "name": "COSMOS 2251 DEB",
        "group": "cosmos-2251-debris",
        "lat": 14.330680320640223,
        "lon": -83.38441225121959,
        "alt_km": 752.5444532598885,
        "timestamp": "2025-12-15T19:00:45.751454+00:00",
        "meta_object_name": "COSMOS 2251 DEB",
        "meta_object_id": "1993-036CJ",
        "meta_epoch": "2025-12-14T21:32:49.708320",
        "meta_mean_motion": 14.37863735,
        "meta_eccentricity": 0.00206288,
        "meta_inclination": 74.0378,
        "meta_ra_of_asc_node": 274.0685,
        "meta_arg_of_pericenter": 354.0774,
        "meta_mean_anomaly": 73.038,
        "meta_ephemeris_type": 0,
        "meta_classification_type": "U",
        "meta_norad_cat_id": 33841,
        "meta_element_set_no": 999,
        "meta_rev_at_epoch": 88145,
        "meta_bstar": 0.00024640716,
        "meta_mean_motion_dot": 7.19e-06,
        "meta_mean_motion_ddot": 0,
        "tle_line1": "1 33841U 93036CJ  25348.89779755  .00000719  00000+0  24641-3 0  9995",
        "tle_line2": "2 33841  74.0378 274.0685 0020628 354.0774  73.0380 14.37863735881454"
      },
      "geometry": {
        "type": "Point",
        "coordinates": [
          -83.38441225121959,
          14.330680320640223
        ]
      }
    },
    {
      "type": "Feature",
      "properties": {
        "norad_id": 33842,
        "name": "COSMOS 2251 DEB",
        "group": "cosmos-2251-debris",
        "lat": -35.629556004535615,
        "lon": -157.8549691410858,
        "alt_km": 721.780079835924,
        "timestamp": "2025-12-15T19:00:45.751465+00:00",
        "meta_object_name": "COSMOS 2251 DEB",
        "meta_object_id": "1993-036CK",
        "meta_epoch": "2025-12-14T16:33:22.741920",
        "meta_mean_motion": 14.42701796,
        "meta_eccentricity": 0.00473476,
        "meta_inclination": 74.0324,
        "meta_ra_of_asc_node": 216.0322,
        "meta_arg_of_pericenter": 322.9617,
        "meta_mean_anomaly": 36.8273,
        "meta_ephemeris_type": 0,
        "meta_classification_type": "U",
        "meta_norad_cat_id": 33842,
        "meta_element_set_no": 999,
        "meta_rev_at_epoch": 88365,
        "meta_bstar": 0.00033411954,
        "meta_mean_motion_dot": 1.1e-05,
        "meta_mean_motion_ddot": 0,
        "tle_line1": "1 33842U 93036CK  25348.68984655  .00001100  00000+0  33412-3 0  9991",
        "tle_line2": "2 33842  74.0324 216.0322 0047347 322.9617  36.8273 14.42701796883653"
      },
      "geometry": {
        "type": "Point",
        "coordinates": [
          -157.8549691410858,
          -35.629556004535615
        ]
      }
    }
  ]
}